{
    "links": {
        "self": "http://www.neowsapp.com/rest/v1/neo/3840766?api_key=iIulBulltgU6a56xZRHN4H3l9WmuAYTsLGpBGhQ2"
    },
    "id": "3840766",
    "neo_reference_id": "3840766",
    "name": "(2019 GK)",
    "designation": "2019 GK",
    "nasa_jpl_url": "http://ssd.jpl.nasa.gov/sbdb.cgi?sstr=3840766",
    "absolute_magnitude_h": 23.9,
    "estimated_diameter": {
        "kilometers": {
            "estimated_diameter_min": 0.04411182,
            "estimated_diameter_max": 0.0986370281
        },
        "meters": {
            "estimated_diameter_min": 44.1118199997,
            "estimated_diameter_max": 98.6370281305
        },
        "miles": {
            "estimated_diameter_min": 0.0274098057,
            "estimated_diameter_max": 0.0612901888
        },
        "feet": {
            "estimated_diameter_min": 144.7238235278,
            "estimated_diameter_max": 323.6123073718
        }
    },
    "is_potentially_hazardous_asteroid": false,
    "close_approach_data": [
        {
            "close_approach_date": "2019-03-17",
            "close_approach_date_full": "2019-Mar-17 08:37",
            "epoch_date_close_approach": 1552811820000,
            "relative_velocity": {
                "kilometers_per_second": "6.0007033107",
                "kilometers_per_hour": "21602.5319183584",
                "miles_per_hour": "13422.9732356044"
            },
            "miss_distance": {
                "astronomical": "0.124074182",
                "lunar": "48.264856798",
                "kilometers": "18561233.34919234",
                "miles": "11533415.591600692"
            },
            "orbiting_body": "Earth"
        }
    ],
    "orbital_data": {
        "orbit_id": "6",
        "orbit_determination_date": "2019-04-26 06:56:27",
        "first_observation_date": "2019-04-02",
        "last_observation_date": "2019-04-26",
        "data_arc_in_days": 24,
        "observations_used": 40,
        "orbit_uncertainty": "7",
        "minimum_orbit_intersection": ".102752",
        "jupiter_tisserand_invariant": "3.710",
        "epoch_osculation": "2459000.5",
        "eccentricity": ".4557530428495317",
        "semi_major_axis": "1.993105297910003",
        "inclination": "4.120543543181917",
        "ascending_node_longitude": "201.6174485641812",
        "orbital_period": "1027.764924914499",
        "perihelion_distance": "1.084741493667997",
        "perihelion_argument": "319.7336673774607",
        "aphelion_distance": "2.90146910215201",
        "perihelion_time": "2458549.441486918800",
        "mean_anomaly": "157.9943630813636",
        "mean_motion": ".3502746506259188",
        "equinox": "J2000",
        "orbit_class": {
            "orbit_class_type": "AMO",
            "orbit_class_description": "Near-Earth asteroid orbits similar to that of 1221 Amor",
            "orbit_class_range": "1.017 AU < q (perihelion) < 1.3 AU"
        }
    },
    "is_sentry_object": false
}